{
    "links": {
        "self": "http://www.neowsapp.com/rest/v1/neo/3797854?api_key=iIulBulltgU6a56xZRHN4H3l9WmuAYTsLGpBGhQ2"
    },
    "id": "3797854",
    "neo_reference_id": "3797854",
    "name": "(2018 BD3)",
    "designation": "2018 BD3",
    "nasa_jpl_url": "http://ssd.jpl.nasa.gov/sbdb.cgi?sstr=3797854",
    "absolute_magnitude_h": 22.4,
    "estimated_diameter": {
        "kilometers": {
            "estimated_diameter_min": 0.0880146521,
            "estimated_diameter_max": 0.1968067451
        },
        "meters": {
            "estimated_diameter_min": 88.0146520901,
            "estimated_diameter_max": 196.8067450894
        },
        "miles": {
            "estimated_diameter_min": 0.0546897524,
            "estimated_diameter_max": 0.122290004
        },
        "feet": {
            "estimated_diameter_min": 288.7619911632,
            "estimated_diameter_max": 645.6914415591
        }
    },
    "is_potentially_hazardous_asteroid": false,
    "close_approach_data": [
        {
            "close_approach_date": "2018-01-18",
            "close_approach_date_full": "2018-Jan-18 00:06",
            "epoch_date_close_approach": 1516233960000,
            "relative_velocity": {
                "kilometers_per_second": "19.873813156",
                "kilometers_per_hour": "71545.7273616119",
                "miles_per_hour": "44455.7326486638"
            },
            "miss_distance": {
                "astronomical": "0.092031266",
                "lunar": "35.800162474",
                "kilometers": "13767681.36700342",
                "miles": "8554840.508230396"
            },
            "orbiting_body": "Earth"
        },
        {
            "close_approach_date": "2152-01-16",
            "close_approach_date_full": "2152-Jan-16 11:48",
            "epoch_date_close_approach": 5744692080000,
            "relative_velocity": {
                "kilometers_per_second": "18.3191613406",
                "kilometers_per_hour": "65948.9808262313",
                "miles_per_hour": "40978.1320028324"
            },
            "miss_distance": {
                "astronomical": "0.0392863154",
                "lunar": "15.2823766906",
                "kilometers": "5877149.103988198",
                "miles": "3651891.1127772124"
            },
            "orbiting_body": "Earth"
        },
        {
            "close_approach_date": "2153-12-07",
            "close_approach_date_full": "2153-Dec-07 20:26",
            "epoch_date_close_approach": 5804425560000,
            "relative_velocity": {
                "kilometers_per_second": "17.084292188",
                "kilometers_per_hour": "61503.4518766322",
                "miles_per_hour": "38215.853195233"
            },
            "miss_distance": {
                "astronomical": "0.092603627",
                "lunar": "36.022810903",
                "kilometers": "13853305.35347449",
                "miles": "8608044.786308362"
            },
            "orbiting_body": "Mars"
        }
    ],
    "orbital_data": {
        "orbit_id": "7",
        "orbit_determination_date": "2018-02-08 06:22:59",
        "first_observation_date": "2018-01-20",
        "last_observation_date": "2018-02-08",
        "data_arc_in_days": 19,
        "observations_used": 53,
        "orbit_uncertainty": "8",
        "minimum_orbit_intersection": ".0391846",
        "jupiter_tisserand_invariant": "3.915",
        "epoch_osculation": "2458141.5",
        "eccentricity": ".56402889477358",
        "semi_major_axis": "1.728028473924715",
        "inclination": "18.15923617790215",
        "ascending_node_longitude": "298.883982259344",
        "orbital_period": "829.7070273299594",
        "perihelion_distance": ".7533704836396818",
        "perihelion_argument": "101.7230337763465",
        "aphelion_distance": "2.702686464209748",
        "perihelion_time": "2458089.711658300018",
        "mean_anomaly": "22.4703448300182",
        "mean_motion": ".4338880931965814",
        "equinox": "J2000",
        "orbit_class": {
            "orbit_class_type": "APO",
            "orbit_class_description": "Near-Earth asteroid orbits which cross the Earth’s orbit similar to that of 1862 Apollo",
            "orbit_class_range": "a (semi-major axis) > 1.0 AU; q (perihelion) < 1.017 AU"
        }
    },
    "is_sentry_object": false
}